"Address","AirtableRecordId","ambasadorVerifyForm","AmbDescription","AmbName","AmbNameHeading","Country","created","DateFormula","DateStart","day of week","EventType","FacebookURL","Geocoded","Latitude","LinkToMembers","LocationHeading","Longitude","Number","RaceID","State","TimeEnd","timeEnd12hr","TimeFormula","TimeStart","timeStart12hr"
"Wilson Rd &, Walter Cousins Rd
Newberry, South Carolina 29108
United States
","recr1zDOz6fclSk9l","https://nacanicross.fillout.com/t/i7gVYy8GSWus?id=recr1zDOz6fclSk9l","Come join us on Valentines Day, we will canicross about 4 miles (2 down and back). Then we may hike afterwards. Depending on the weather
","Crystal Martineau","Event by:  Crystal Martineau","United States","01/17/2026 22:19:08","02/14/26","2026-02-14","Sat","Ambassador Group Meetup","https://facebook.com/events/s/south-carolina-valentines-day-/780662925061985/","True","34.273165401942336","recLiBl88312CdfiW","Location:  South Carolina","-81.5885834709032","353","Race353_02/14/26","South Carolina",,,"09:00 AM","09:00","09:00 AM"
"19103 N Crozier Rd
Surprise, Arizona 85388
United States
","reclJJMsQB7Cw7sjj","https://nacanicross.fillout.com/t/i7gVYy8GSWus?id=reclJJMsQB7Cw7sjj","üíïShare the LOVE of Canicross at our Valentine's Day Meetupüíï
We‚Äôll be heading out for approximately 3 miles, with options to shorten or extend the distance to fit your comfort level or goals.
All paces are welcome‚Äîwhether you‚Äôre running, jogging, or enjoying a steady walk‚Äîthis is a relaxed, inclusive outing focused on having fun and spending time together on the trail. Come celebrate Valentine‚Äôs Day with your favorite running partner!
No bathrooms or water at trailhead.
Trailhead:
33.63816388042057, -112.46985364839882 
","Kassie Crapps","Event by:  Kassie Crapps","United States","01/19/2026 23:42:29","02/14/26","2026-02-14","Sat","Ambassador Group Meetup","https://www.facebook.com/share/1AtbJSyNZ6/","True","33.658353500000004","recht9NAARzMbVhg3","Location:  Arizona","-112.43442634507042","354","Race354_02/14/26","Arizona",,,"08:00 AM","08:00","08:00 AM"
"Lubell Park 2910 W 53rd St
Tulsa, Oklahoma 74107
United States
","rec54kKl559VQHeRm","https://nacanicross.fillout.com/t/i7gVYy8GSWus?id=rec54kKl559VQHeRm","Come out and join the run or come out and learn more about canicross!
","Tyler Deviney","Event by:  Tyler Deviney","United States","02/03/2026 01:38:09","02/15/26","2026-02-15","Sun","Ambassador Group Meetup","https://www.facebook.com/share/1Agy6RHE4u/","True","36.1219016","recYh1PRPp9sFTDlN","Location:  Oklahoma","-96.0298037","409","Race409_02/15/26","Oklahoma","11:00","11:00 AM","10:00 AM - 11:00 AM","10:00","10:00 AM"
"4801 Blackburn fork rd
Cookeville, Tennessee 38501
United States
","recDVZbXBE8Tlva6q","https://nacanicross.fillout.com/t/i7gVYy8GSWus?id=recDVZbXBE8Tlva6q","
The best way to wrap up Valentines Weekend! 

We'll be running and hiking the Daliah Bell Trail (aka meadow trail). The entire loop is 1.5 miles, but you can cut out a shorter distance if you like, or run it multiple times. The trail is mostly flat with one small technical section. Please park at the visitor center/general market next to the campground.

If you are new to canicross and want to try it out, I have extra belts, harnesses, and lines. Just send me a message so I can make sure I have your dog‚Äôs size!üôÇ

4801 Blackburn Fork Rd, Cookeville, TN 38501
","Haley Mayse","Event by:  Haley Mayse","United States","02/08/2026 02:29:54","02/15/26","2026-02-15","Sun","Ambassador Group Meetup","https://www.facebook.com/share/18D6iznxQ9/?mibextid=wwXIfr","True","36.1508946","recaHXmCgvciQvCJ0","Location:  Tennessee","-85.5283098","414","Race414_02/15/26","Tennessee",,,"10:00 AM","10:00","10:00 AM"
"2615 Maryville Pike
Knoxville, Tennessee 37920
United States
","recflDGkV06YB5zpg","https://nacanicross.fillout.com/t/i7gVYy8GSWus?id=recflDGkV06YB5zpg","üéâ Join us as we get back into canicross shape for the Race Around Redtop!üéâ
üìÖ Date: January 31th, 2026
üï• Time: 10:00 AM
üìç Location: I.C. King Park - Expansion entrance off of Old Knoxville Highway (https://share.google/pZtKZlwKuMGgnAotc)
‚è±Ô∏è2 mile loop or can be made longer
üêæ All levels welcome!

üê∂ What to Bring
‚Ä¢ Plenty of water for you and your dog
‚Ä¢ Leashes, Y-front harnesses, and/or Canicross gear
‚Ä¢ Muzzles are allowed as long as the dog can pant freely.
‚Ä¢ No face leads (e.g., Gentle Leader)

NACC Meetup Waiver:
https://nacanicross.fillout.com/t/dQrpDEnWaEus?fbclid=IwZXh0bgNhZW0CMTEAAR1d4VOvKsfJT4cOjhfBSYIYnRSHXMTyKqigYjSAU2MtF2eZWoram5gvw6E_aem_C0e9d-mm5ZCWplS0-2JNYQ
","Gretchen Cook","Event by:  Gretchen Cook","United States","01/30/2026 23:13:20","02/21/26","2026-02-21","Sat","Ambassador Group Meetup","https://www.facebook.com/share/17raxDSkCB/","True","35.9491563","recevR2y2SMDWSlIt","Location:  Tennessee","-83.91440811624906","408","Race408_02/21/26","Tennessee",,,"10:00 AM","10:00","10:00 AM"
"2102 Grandin Rd SW
Roanoke, Virginia 24015
United States
","rec5fNCAX3ajiXlRU","https://nacanicross.fillout.com/t/i7gVYy8GSWus?id=rec5fNCAX3ajiXlRU","This will be a meetup for the Virtual Race Around Red Top NACC race!
","Ashton Lesiak","Event by:  Ashton Lesiak","United States","01/13/2026 17:24:17","03/08/26","2026-03-08","Sun","Ambassador Group Meetup",,"True","37.255132849999995","recZg9c9wMMYUO2C5","Location:  Virginia","-79.98337711635725","369","Race369_03/08/26","Virginia",,,"09:00 AM","09:00","09:00 AM"
"Papago Park, 625 N Galvin Pkwy
Phoenix, Arizona 85008
United States
","recOhJIOnBYFF7oz1","https://nacanicross.fillout.com/t/i7gVYy8GSWus?id=recOhJIOnBYFF7oz1","Join North American Canicross for a 5k loop around Papago Park.
Bonus, this meet-up is designed to satisfy the requirements for NACC's Race Around Red Top virtual race (https://runsignup.com/.../Cartersville/NACCsRACEAROUNDREDTOP). Participating in this virtual race is NOT Required to attend the meet-up. The virtual race does count toward NACC's Race Dog title.

Porta potties were available the last time I was at the trailhead.
Bring drinking water.
","Kassie Crapps","Event by:  Kassie Crapps","United States","02/05/2026 03:32:01","03/28/26","2026-03-28","Sat","Ambassador Group Meetup","https://www.facebook.com/share/1Dd8ZCb5BK/","True","33.456495849999996","recht9NAARzMbVhg3","Location:  Arizona","-111.95368535748278","411","Race411_03/28/26","Arizona",,,"08:00 AM","08:00","08:00 AM"
"23-25 Brick Hill Road
Somers, New York 10589
United States
","reca0aOk9lKDY8TAb","https://nacanicross.fillout.com/t/i7gVYy8GSWus?id=reca0aOk9lKDY8TAb","Join Hendrick and I for a canicross run to Celebrate his 3rd birthday! This is one of the flattest, potentially fastest, and (arguably) most scenic 5K trail runs in Westchester. We're talking a whopping 94 feet of ascent over the duration with a lot of single track and technical bits that include dirt, mud, sand, and rock surfaces, with just enough root to keep one super focused. This is an out and back run and we will keep the pace appropriate to whomever shows to work on running with other canicrossers and overtaking/directional commands. The trail head parking lot is small, additional parking is available on the shoulder of the road. No admission or parking fees. Interested, though don't want to run with your dog yet, or are hoping to have a dog soon, feel free to show up and say hello or even better run along without a dog.
","Richard Kelly","Event by:  Richard Kelly","United States","01/03/2026 02:01:29","04/12/26","2026-04-12","Sun","Ambassador Group Meetup","https://www.facebook.com/events/1198840831745632/?acontext=%7B%22event_action_history%22%3A[%7B%22extra_data%22%3A%22%22%2C%22mechanism%22%3A%22surface%22%2C%22surface%22%3A%22profile_browser%22%7D%2C%7B%22extra_data%22%3A%22%22%2C%22mechanism%22%3A%22surface%22%2C%22surface%22%3A%22duplicate_dialog%22%7D]%2C%22ref_notif_type%22%3Anull%7D&onload_action=open_invite_flow&show_created_event_toast=true","True","41.321863","recPOd23J6y7r8vQK","Location:  New York","-73.7120402","380","Race380_04/12/26","New York","10:00","10:00 AM","09:00 AM - 10:00 AM","09:00","09:00 AM"
